ONEWEB-0597             
1 54663U 22166X   24128.46996540  .00000108  00000+0  22908-3 0  9993
2 54663  87.9322  37.3826 0001655  71.9817 288.1497 13.21824316 69720
ONEWEB-0600             
1 54664U 22166Y   24128.45261657  .00000112  00000+0  24041-3 0  9992
2 54664  87.9317  37.4286 0001706  76.1151 284.0173 13.21825308 69695
ONEWEB-0601             
1 54665U 22166Z   24128.44473001  .00000056  00000+0  10361-3 0  9997
2 54665  87.9324  37.3914 0001821  62.9732 297.1588 13.21824656 69888
ONEWEB-0602             
1 54666U 22166AA  24128.48573654 -.00000003  00000+0 -39374-4 0  9997
2 54666  87.9324  37.3877 0001694  69.6480 290.4836 13.21824450 69737
ONEWEB-0603             
1 54667U 22166AB  24128.49046553 -.00000007  00000+0 -48692-4 0  9999
2 54667  87.9325  37.3874 0001688  66.9204 293.2107 13.21824751 69661
ONEWEB-0604             
1 54668U 22166AC  24128.47784630  .00000035  00000+0  52184-4 0  9993
2 54668  87.9318  37.3725 0001675  85.5638 274.5688 13.21825112 69627
ONEWEB-0605             
1 54669U 22166AD  24128.47153856  .00000113  00000+0  24267-3 0  9991
2 54669  87.9317  37.4069 0001961  59.1960 300.9367 13.21824242 69690
ONEWEB-0606             
1 54670U 22166AE  24128.49362260 -.00000039  00000+0 -12499-3 0  9999
2 54670  87.9323  37.3904 0002074  84.2207 275.9163 13.21824518 69753
